[{"OBJECT_NAME":"AFR-1","OBJECT_ID":"2023-084AJ","EPOCH":"2026-03-09T23:02:07.499328","MEAN_MOTION":15.27543824,"ECCENTRICITY":0.00099838,"INCLINATION":97.6099,"RA_OF_ASC_NODE":203.4313,"ARG_OF_PERICENTER":334.9676,"MEAN_ANOMALY":25.1077,"EPHEMERIS_TYPE":0,"CLASSIFICATION_TYPE":"U","NORAD_CAT_ID":56964,"ELEMENT_SET_NO":999,"REV_AT_EPOCH":15207,"BSTAR":0.00024843733,"MEAN_MOTION_DOT":6.624e-5,"MEAN_MOTION_DDOT":0},{"OBJECT_NAME":"STARLINK-31379","OBJECT_ID":"2024-031V","EPOCH":"2026-03-09T20:23:14.907840","MEAN_MOTION":15.30194472,"ECCENTRICITY":0.00011219,"INCLINATION":53.1597,"RA_OF_ASC_NODE":296.2331,"ARG_OF_PERICENTER":89.7443,"MEAN_ANOMALY":270.3686,"EPHEMERIS_TYPE":0,"CLASSIFICATION_TYPE":"U","NORAD_CAT_ID":58984,"ELEMENT_SET_NO":999,"REV_AT_EPOCH":11653,"BSTAR":2.2182322e-5,"MEAN_MOTION_DOT":2.98e-6,"MEAN_MOTION_DDOT":0}]
